FALCONSAT-3
1 30776U 07006E   20035.39966073  .00002439  00000-0  66842-4 0  9997
2 30776  35.4354  57.2761 0001833  28.7292 331.3536 15.37158437716194